TDRS 3                  
1 19548U 88091B   26194.76512008 -.00000306  00000+0  00000+0 0  9992
2 19548  12.5818 340.8236 0037043 355.4842 181.6011  1.00262985125658
FLTSATCOM 8 (USA 46)    
1 20253U 89077A   26194.79975214 -.00000375  00000+0  00000+0 0  9993
2 20253  12.4139 351.0002 0003434  70.4666 283.6271  1.00263723260829
SKYNET 4C               
1 20776U 90079A   26195.09916031 -.00000131  00000+0  00000+0 0  9993
2 20776  13.3296 349.6432 0002767 135.5294  40.2232  0.98578186   308
TDRS 5                  
1 21639U 91054B   26194.67035781  .00000076  00000+0  00000+0 0  9990
2 21639  14.0678 353.5800 0007455 257.9398 113.6499  1.00272813127981
TDRS 6                  
1 22314U 93003B   26195.19821380 -.00000305  00000+0  00000+0 0  9999
2 22314  14.1832 356.8548 0008316 183.9375 136.5845  1.00280121122671
UFO 2 (USA 95)          
1 22787U 93056A   26195.13699502  .00000115  00000+0  00000+0 0  9992
2 22787  11.9044   3.4026 0002525   8.2220 358.3225  1.00269928118825
UFO 4 (USA 108)         
1 23467U 95003A   26194.73773330 -.00000029  00000+0  00000+0 0  9994
2 23467   9.6750  13.0158 0003138  98.3289 258.2016  1.00276076115216
TDRS 7                  
1 23613U 95035B   26194.93506155 -.00000249  00000+0  00000+0 0  9997
2 23613  13.3660 348.0028 0011527  86.1855 283.4901  1.00274212113528
USA 115 (MILSTAR-1 2)   
1 23712U 95060A   26195.19259277 -.00000213  00000+0  00000+0 0  9995
2 23712  14.0823   3.5424 0006051 123.5647 144.2666  1.00272642 33158
INMARSAT 3-F1           
1 23839U 96020A   26195.21679676  .00000037  00000+0  00000+0 0  9997
2 23839  10.6554  46.3812 0004456  88.1057 111.9070  0.99980118110523
INMARSAT 3-F2           
1 24307U 96053A   26195.01277617 -.00000371  00000+0  00000+0 0  9993
2 24307   9.9154  53.6592 0006378  53.9376 311.8262  0.99992167109198
INMARSAT 3-F3           
1 24674U 96070A   26194.77796050  .00000035  00000+0  00000+0 0  9994
2 24674  10.3738  49.3940 0003555  74.9874 102.7211  0.99994709108170
USA 134                 
1 25019U 97065A   26195.20041505 -.00000075  00000+0  00000+0 0  9995
2 25019  12.8155  21.5161 0002525 334.0051 256.2716  1.00273491 33223
INMARSAT 3-F5           
1 25153U 98006B   26195.11809690 -.00000303  00000+0  00000+0 0  9991
2 25153   9.7515  52.9869 0004326  61.7686 165.7731  1.00273383104162
ABS-6                   
1 25924U 99053A   26195.16282182 -.00000126  00000+0  00000+0 0  9999
2 25924   0.0576 261.9025 0003317 191.8893  55.8366  1.00272329 98118
UFO 10 (USA 146)        
1 25967U 99063A   26194.84158801 -.00000198  00000+0  00000+0 0  9990
2 25967   9.8534  27.0660 0001549 115.2403  69.4292  1.00272821 97614
ASIASTAR                
1 26107U 00016A   26195.08078691 -.00000346  00000+0  00000+0 0  9997
2 26107   9.1901  57.8623 0003718  66.6737 301.5095  1.00271595 96191
USA 149 (DSP 20)        
1 26356U 00024A   26194.67096448  .00000087  00000+0  00000+0 0  9997
2 26356  13.1899  11.6596 0001773 309.8659  46.8953  1.00281488 33172
TDRS 8                  
1 26388U 00034A   26195.07680022 -.00000209  00000+0  00000+0 0  9992
2 26388  12.7247  31.0896 0004065  35.9877 337.3653  1.00272570 95450
NSS-11                  
1 26554U 00059A   26195.09491362  .00000016  00000+0  00000+0 0  9998
2 26554   2.1938  81.0693 0002821  36.3305  24.7259  1.00270795 41563
USA 153                 
1 26575U 00065A   26194.87288413 -.00000337  00000+0  00000+0 0  9991
2 26575  11.6691  35.1944 0002075  58.0836 287.1658  1.00273004 33191
AMC-6                   
1 26580U 00067A   26195.21314612  .00000082  00000+0  00000+0 0  9995
2 26580   0.2190  83.6511 0003794  42.5067 107.6001  1.00270461 94162
USA 157 (MILSTAR-2 2)   
1 26715U 01009A   26195.20727149  .00000098  00000+0  00000+0 0  9991
2 26715  11.5719  19.5917 0040510 179.3262  17.6814  1.00273780 33213
INTELSAT 902 (IS-902)   
1 26900U 01039A   26194.55106729 -.00000293  00000+0  00000+0 0  9990
2 26900   6.1812  71.4591 0004414  38.1703 330.0689  1.00270360 90961
USA 164 (MILSTAR-2 3)   
1 27168U 02001A   26194.85184073  .00000088  00000+0  00000+0 0  9999
2 27168  11.2107  21.7398 0098528   8.9688 226.6995  1.00276714 33226
INTELSAT 904 (IS-904)   
1 27380U 02007A   26194.98249714 -.00000237  00000+0  00000+0 0  9996
2 27380   6.9846  68.8591 0005369  24.8035 160.4175  1.00270906 52036
DIRECTV 5 (TEMPO 1)     
1 27426U 02023A   26195.10954083 -.00000067  00000+0  00000+0 0  9993
2 27426   4.9443  74.9732 0003047  44.9042 101.4190  1.00271184 88394
INTELSAT 905 (IS-905)   
1 27438U 02027A   26195.21225685  .00000082  00000+0  00000+0 0  9997
2 27438   6.8190  69.4707 0003457  47.1178 114.6908  1.00271598 51637
GALAXY 3C (G-3C)        
1 27445U 02030A   26195.11257419 -.00000162  00000+0  00000+0 0  9998
2 27445   3.8010  77.6250 0001509  36.6976 123.3507  1.00270708 46764
INTELSAT 906 (IS-906)   
1 27513U 02041A   26195.14401507  .00000002  00000+0  00000+0 0  9990
2 27513   5.8685  72.5882 0003849  23.6450 311.7676  1.00272931 87290
NIMIQ 2                 
1 27632U 02062A   26195.13015647 -.00000081  00000+0  00000+0 0  9998
2 27632   9.5062  56.6094 0005258  54.4718 118.5603  1.00270286 44450
USA 167                 
1 27691U 03008A   26195.21801329 -.00000009  00000+0  00000+0 0  9993
2 27691  11.0133  43.1619 0003433 310.2080 255.4523  1.00270353  7045
USA 169 (MILSTAR-2 4)   
1 27711U 03012A   26194.87626416 -.00000208  00000+0  00000+0 0  9995
2 27711  12.3887  29.6200 0099290  10.1954 359.5286  1.00273342 33227
ASIASAT 4               
1 27718U 03014A   26194.54982293 -.00000231  00000+0  00000+0 0  9992
2 27718   4.7692  75.4149 0002911  39.0890 162.3871  1.00270064 45565
HELLAS-SAT 2            
1 27811U 03020A   26194.91545645 -.00000096  00000+0  00000+0 0  9999
2 27811   7.4187  67.5610 0003548  80.5365 103.2193  1.00271313 43116
THURAYA-2               
1 27825U 03026A   26195.14002838  .00000114  00000+0  00000+0 0  9998
2 27825   8.8800  31.8511 0002440  25.9604 328.6176  1.00273551 84611
OPTUS C1                
1 27831U 03028B   26194.87695750 -.00000163  00000+0  00000+0 0  9992
2 27831   6.9541  69.0828 0005190  40.7951 293.2777  1.00269206 53328
USA 170                 
1 27875U 03040A   26194.77960718  .00000114  00000+0  00000+0 0  9997
2 27875  10.5548  47.6912 0001764  78.4759 110.3759  1.00274489 33266
GALAXY 13 (HORIZONS-1)  
1 27954U 03044A   26195.20705008  .00000125  00000+0  00000+0 0  9999
2 27954   1.4868  83.5189 0002155  27.9050 105.1694  1.00270845 46841
YAMAL 202               
1 28089U 03053A   26194.87851750 -.00000091  00000+0  00000+0 0  9990
2 28089   6.4073  70.6129 0003262  41.8334 299.1120  1.00272017 82969
UFO 11 (USA 174)        
1 28117U 03057A   26195.01552947 -.00000115  00000+0  00000+0 0  9996
2 28117   8.9568  33.6916 0002679  93.2451 246.1158  1.00270243 82717
USA 176 (DSP 22)        
1 28158U 04004A   26195.13181295 -.00000308  00000+0  00000+0 0  9995
2 28158  12.0980  25.8666 0001149 289.8135 334.3516  1.00266050 33203
ABS-4 (MOBISAT-1)       
1 28184U 04007A   26195.14332171  .00000028  00000+0  00000+0 0  9997
2 28184   6.1070  71.6773 0004603  42.9207 289.9536  1.00273138 52607
INTELSAT 10-02          
1 28358U 04022A   26194.98850939 -.00000017  00000+0  00000+0 0  9994
2 28358   0.0545 249.0819 0000498 341.5112  56.1193  1.00271012 80820
ANIK F2                 
1 28378U 04027A   26195.10936750 -.00000059  00000+0  00000+0 0  9998
2 28378   3.3549  79.0871 0003566  31.7409 109.3917  1.00271334 41534
AMC-15                  
1 28446U 04041A   26195.21280721 -.00000095  00000+0  00000+0 0  9992
2 28446   0.0292 314.2197 0002094 151.9560 157.4641  1.00270811 79574
NSS-10                  
1 28526U 05003A   26195.05262009 -.00000263  00000+0  00000+0 0  9998
2 28526   6.5146  70.1233 0002620  40.3492 162.9359  1.00270358 53420
INMARSAT 4-F1           
1 28628U 05009A   26194.88137750  .00000024  00000+0  00000+0 0  9995
2 28628   5.2035  42.7845 0002368  71.9044 312.4556  1.00271153 77940
DIRECTV 8               
1 28659U 05019A   26195.21912051  .00000000  00000+0  00000+0 0  9997
2 28659   0.0187  45.3574 0003080  81.5198 125.0502  1.00270609 77340
GALAXY 28 (G-28)        
1 28702U 05022A   26195.12590163 -.00000209  00000+0  00000+0 0  9998
2 28702   3.3657  78.6009 0002546  23.4428 208.1735  1.00272757 52245
THAICOM 4               
1 28786U 05028A   26195.01242949 -.00000368  00000+0  00000+0 0  9996
2 28786   0.3124  85.5245 0001371  10.5697 319.7482  1.00270252 52518
ANIK F1R                
1 28868U 05036A   26195.12003811 -.00000085  00000+0  00000+0 0  9997
2 28868   4.3793  76.2445 0003716  28.7758 122.8779  1.00271383 46722
SYRACUSE 3A             
1 28885U 05041B   26194.85540220  .00000119  00000+0  00000+0 0  9998
2 28885   4.7078  75.5114 0002734  32.6807 178.1153  1.00273542 76018
INMARSAT 4-F2           
1 28899U 05044A   26194.54909825 -.00000268  00000+0  00000+0 0  9998
2 28899   5.1293  43.6584 0002772  61.2305 167.7008  1.00270497 75789
METEOSAT-9 (MSG-2)      
1 28912U 05049B   26194.71255669  .00000113  00000+0  00000+0 0  9996
2 28912   9.4193  53.9017 0002102 356.2419 183.6226  1.00271253  7264
EUTELSAT 174A           
1 28924U 05052A   26194.88059750 -.00000001  00000+0  00000+0 0  9991
2 28924   4.2840  76.1960 0005782  38.5548 307.9598  1.00270724 52594
ECHOSTAR 10             
1 28935U 06003A   26195.10954083 -.00000061  00000+0  00000+0 0  9995
2 28935   0.0316 314.9852 0001048 136.2703 129.9717  1.00270775 74732
SPAINSAT                
1 28945U 06007A   26194.27520359 -.00000221  00000+0  00000+0 0  9990
2 28945   0.6285  86.0849 0004604  26.1877 247.7634  1.00269770 74489
JCSAT-5A                
1 29045U 06010A   26195.01485617 -.00000335  00000+0  00000+0 0  9992
2 29045   1.1765  83.9161 0001635  26.1818 319.1641  1.00269822 74030
ASTRA 1KR               
1 29055U 06012A   26195.13508836  .00000112  00000+0  00000+0 0  9999
2 29055   0.5412  83.1711 0003284  22.1984 254.2576  1.00269879 45966
